OBJECT_NAME,OBJECT_ID,EPOCH,MEAN_MOTION,ECCENTRICITY,INCLINATION,RA_OF_ASC_NODE,ARG_OF_PERICENTER,MEAN_ANOMALY,EPHEMERIS_TYPE,CLASSIFICATION_TYPE,NORAD_CAT_ID,ELEMENT_SET_NO,REV_AT_EPOCH,BSTAR,MEAN_MOTION_DOT,MEAN_MOTION_DDOT
CUBEBUG-2 (LO-74),2013-066AA,2026-07-24T07:17:41.169408,14.94014397,.0055518,97.8914,154.4500,264.3624,95.1262,0,U,39440,999,68253,.28412591E-3,.306E-4,0
FUNCUBE-1 (AO-73),2013-066AE,2026-07-23T21:47:42.327456,15.09916203,.00381192,97.8299,177.1366,79.5292,281.0228,0,U,39444,999,68520,.45787044E-3,.7483E-4,0
UWE-3,2013-066AG,2026-07-24T07:25:10.995456,14.97251576,.00479408,97.8728,161.6441,193.4581,166.5366,0,U,39446,999,68313,.31926471E-3,.3722E-4,0
UNISAT-6,2014-033C,2026-07-24T07:28:59.342016,14.88397654,.00436127,97.7919,357.3831,307.0835,52.6398,0,U,40012,999,65168,.25782784E-3,.2374E-4,0
DUCHIFAT-1,2014-033M,2026-07-23T03:04:09.829056,15.72917143,.0003896,98.0412,268.5702,226.4566,133.6372,0,U,40021,999,66138,.12882E-2,.177994E-2,0
QB50P1,2014-033R,2026-07-23T23:38:37.791168,15.18771713,.0010561,98.0974,218.7258,99.6465,260.5961,0,U,40025,999,65861,.42676111E-3,.8811E-4,0
LILACSAT-2,2015-049K,2026-07-24T08:15:51.909984,15.52633262,.00086494,97.4630,243.6214,115.0170,245.1982,0,U,40908,999,60151,.42998061E-3,.26449E-3,0
FOX-1A (AO-85),2015-058D,2026-07-24T07:24:34.123392,14.91140428,.01331291,64.7741,163.6053,42.3614,318.7684,0,U,40967,999,11910,.3939625E-3,.4471E-4,0
CAS-2T & KS-1Q,2016-066G,2026-07-24T03:41:51.617760,14.44782187,.03417418,98.3807,280.4672,17.6080,343.6621,0,U,41847,999,51013,.11140645E-3,.733E-5,0
RADFXSAT (FOX-1B),2017-073E,2026-07-24T01:07:35.039712,15.13159133,.01486883,97.4662,71.5110,200.7227,158.7937,0,U,43017,999,47096,.42813016E-3,.9912E-4,0
DIWATA-2B,2018-084H,2026-07-24T05:54:49.362624,15.00588010,.00122542,98.1226,43.0796,56.1580,304.0807,0,U,43678,999,42177,.14634081E-3,.1784E-4,0
ES'HAIL 2,2018-090A,2026-07-23T13:06:23.457312,1.00273645,.0002702,0.0186,49.6880,107.0586,6.9459,0,U,43700,999,2804,0,0,0
FOX-1CLIFF (AO-95),2018-099N,2026-07-24T02:24:08.890560,15.27427986,.0008044,97.4364,265.2237,205.0640,155.0210,0,U,43770,999,41885,.54175739E-3,.14496E-3,0
ITASAT,2018-099AE,2026-07-24T02:27:41.144256,15.19469223,.00115281,97.4012,255.8829,216.0245,144.0214,0,U,43786,999,41851,.38739242E-3,.8165E-4,0
JY1SAT (JO-97),2018-099AX,2026-07-24T03:24:01.993536,15.34763412,.00073717,97.4111,268.1279,132.1697,228.0173,0,U,43803,999,41929,.67750677E-3,.22811E-3,0
UWE-4,2018-111E,2026-07-23T18:08:13.137504,15.48253700,.00075987,97.5823,134.8907,164.6158,195.5324,0,U,43880,999,41643,.65481741E-3,.34567E-3,0
TIANYAN 01,2019-093C,2026-07-24T08:02:42.041184,14.86568568,.00127992,97.7513,276.6587,330.6871,29.3625,0,U,44881,999,35693,.4342381E-4,.332E-5,0
RS-44 & BREEZE-KM R/B,2019-096E,2026-07-24T07:07:57.572832,12.79748900,.02183303,82.5245,315.0482,57.8075,304.3995,0,U,44909,999,30709,-.20821215E-4,.7E-7,0
SALSAT,2020-068K,2026-07-24T05:26:36.991392,15.30274447,.00101826,97.8865,210.5620,161.9998,198.1604,0,U,46495,999,32102,.30305131E-3,.8806E-4,0
XW-3 (CAS-9),2021-131B,2026-07-24T06:18:31.673376,14.41387574,.00039582,98.4980,297.4526,6.2081,353.9157,0,U,50466,999,24045,.11957181E-3,.343E-5,0
GREENCUBE (IO-117),2022-080E,2026-07-24T05:25:06.013056,6.42583383,.00091748,70.1383,285.3666,281.6416,78.3214,0,U,53109,999,9444,0,-.3E-7,0
UMKA 1 (RS40S),2023-091G,2026-07-24T06:19:45.962688,15.21200210,.00121088,97.5031,263.8230,358.3875,1.7320,0,U,57172,999,16964,.31233679E-3,.691E-4,0
CUBESX-HSE 3 (RS42S),2023-091N,2026-07-24T06:45:31.855680,15.32065185,.00088606,97.5073,271.3556,326.7427,33.3257,0,U,57178,999,17010,.5263878E-3,.16252E-3,0
MONITOR-3 (RS58S),2023-091Q,2026-07-24T06:13:13.608192,15.28513414,.00101129,97.5065,268.9902,336.0775,23.9993,0,U,57180,999,16995,.48748528E-3,.13479E-3,0
MONITOR-4 (RS57S),2023-091S,2026-07-24T07:14:20.442336,15.28603765,.00100986,97.5059,269.0061,336.3753,23.7022,0,U,57182,999,16996,.47329419E-3,.1312E-3,0
MONITOR-2 (RS39S),2023-091U,2026-07-24T06:23:53.554848,15.19218426,.00104848,97.5053,263.3123,352.7557,7.3524,0,U,57184,999,16958,.2572938E-3,.5356E-4,0
SVYATOBOR 1 (RS60S),2023-091X,2026-07-24T06:46:41.035296,15.27183061,.00078649,97.5070,269.3146,330.1180,29.9609,0,U,57187,999,16997,.3936748E-3,.10428E-3,0
VIZARD-METEO (RS38S),2023-091Z,2026-07-24T06:24:03.829536,15.37109271,.00051718,97.5073,275.5202,299.3621,60.7106,0,U,57189,999,17038,.58888979E-3,.21348E-3,0
POLYTECH-UNIVERSE 3 (RS46S),2023-091AB,2026-07-24T06:55:43.511520,15.19433772,.0015176,97.5029,262.8384,7.0126,353.1318,0,U,57191,999,16958,.26633413E-3,.559E-4,0
UTMN 2 (RS27S),2023-091AP,2026-07-24T06:42:10.536768,15.32878239,.00060616,97.5069,273.0320,312.5534,47.5196,0,U,57203,999,17022,.50813295E-3,.1608E-3,0
