CUBEBUG-2 (LO-74)       
1 39440U 13066AA  26205.30394872  .00003060  00000+0  28413-3 0  9996
2 39440  97.8914 154.4500 0055518 264.3624  95.1262 14.94014397682531
FUNCUBE-1 (AO-73)       
1 39444U 13066AE  26204.90812879  .00007483  00000+0  45787-3 0  9993
2 39444  97.8299 177.1366 0038119  79.5292 281.0228 15.09916203685207
UWE-3                   
1 39446U 13066AG  26205.30915504  .00003722  00000+0  31926-3 0  9991
2 39446  97.8728 161.6441 0047940 193.4581 166.5366 14.97251576683138
UNISAT-6                
1 40012U 14033C   26205.31179794  .00002374  00000+0  25783-3 0  9997
2 40012  97.7919 357.3831 0043612 307.0835  52.6398 14.88397654651687
DUCHIFAT-1              
1 40021U 14033M   26204.12789154  .00177994  00000+0  12882-2 0  9998
2 40021  98.0412 268.5702 0003896 226.4566 133.6372 15.72917143661389
QB50P1                  
1 40025U 14033R   26204.98515962  .00008811  00000+0  42676-3 0  9996
2 40025  98.0974 218.7258 0010561  99.6465 260.5961 15.18771713658611
LILACSAT-2              
1 40908U 15049K   26205.34435081  .00026449  00000+0  42998-3 0  9992
2 40908  97.4630 243.6214 0008649 115.0170 245.1982 15.52633262601515
FOX-1A (AO-85)          
1 40967U 15058D   26205.30872828  .00004471  00000+0  39396-3 0  9996
2 40967  64.7741 163.6053 0133129  42.3614 318.7684 14.91140428119103
CAS-2T & KS-1Q          
1 41847U 16066G   26205.15406965  .00000733  00000+0  11141-3 0  9997
2 41847  98.3807 280.4672 0341741  17.6080 343.6621 14.44782187510133
RADFXSAT (FOX-1B)       
1 43017U 17073E   26205.04693333  .00009912  00000+0  42813-3 0  9990
2 43017  97.4662  71.5110 0148688 200.7227 158.7937 15.13159133470969
DIWATA-2B               
1 43678U 18084H   26205.24640466  .00001784  00000+0  14634-3 0  9996
2 43678  98.1226  43.0796 0012254  56.1580 304.0807 15.00588010421777
ES'HAIL 2               
1 43700U 18090A   26204.54610483  .00000000  00000+0  00000+0 0  9995
2 43700   0.0186  49.6880 0002702 107.0586   6.9459  1.00273645 28049
FOX-1CLIFF (AO-95)      
1 43770U 18099N   26205.10010290  .00014496  00000+0  54176-3 0  9995
2 43770  97.4364 265.2237 0008044 205.0640 155.0210 15.27427986418857
ITASAT                  
1 43786U 18099AE  26205.10255954  .00008165  00000+0  38739-3 0  9993
2 43786  97.4012 255.8829 0011528 216.0245 144.0214 15.19469223418516
JY1SAT (JO-97)          
1 43803U 18099AX  26205.14168974  .00022811  00000+0  67751-3 0  9992
2 43803  97.4111 268.1279 0007371 132.1697 228.0173 15.34763412419299
UWE-4                   
1 43880U 18111E   26204.75570761  .00034567  00000+0  65482-3 0  9999
2 43880  97.5823 134.8907 0007598 164.6158 195.5324 15.48253700416433
TIANYAN 01              
1 44881U 19093C   26205.33520881  .00000332  00000+0  43424-4 0  9990
2 44881  97.7513 276.6587 0012799 330.6871  29.3625 14.86568568356936
RS-44 & BREEZE-KM R/B   
1 44909U 19096E   26205.29719413  .00000007  00000+0 -20821-4 0  9996
2 44909  82.5245 315.0482 0218330  57.8075 304.3995 12.79748900307095
SALSAT                  
1 46495U 20068K   26205.22681703  .00008806  00000+0  30305-3 0  9993
2 46495  97.8865 210.5620 0010182 161.9998 198.1604 15.30274447321028
XW-3 (CAS-9)            
1 50466U 21131B   26205.26286659  .00000343  00000+0  11957-3 0  9993
2 50466  98.4980 297.4526 0003958   6.2081 353.9157 14.41387574240450
GREENCUBE (IO-117)      
1 53109U 22080E   26205.22576404 -.00000003  00000+0  00000+0 0  9997
2 53109  70.1383 285.3666 0009174 281.6416  78.3214  6.42583383 94445
UMKA 1 (RS40S)          
1 57172U 23091G   26205.26372642  .00006910  00000+0  31234-3 0  9995
2 57172  97.5031 263.8230 0012108 358.3875   1.7320 15.21200210169647
CUBESX-HSE 3 (RS42S)    
1 57178U 23091N   26205.28161870  .00016252  00000+0  52639-3 0  9994
2 57178  97.5073 271.3556 0008860 326.7427  33.3257 15.32065185170101
MONITOR-3 (RS58S)       
1 57180U 23091Q   26205.25918528  .00013479  00000+0  48749-3 0  9999
2 57180  97.5065 268.9902 0010112 336.0775  23.9993 15.28513414169956
MONITOR-4 (RS57S)       
1 57182U 23091S   26205.30162549  .00013120  00000+0  47329-3 0  9997
2 57182  97.5059 269.0061 0010098 336.3753  23.7022 15.28603765169962
MONITOR-2 (RS39S)       
1 57184U 23091U   26205.26659207  .00005356  00000+0  25729-3 0  9998
2 57184  97.5053 263.3123 0010484 352.7557   7.3524 15.19218426169586
SVYATOBOR 1 (RS60S)     
1 57187U 23091X   26205.28241939  .00010428  00000+0  39367-3 0  9991
2 57187  97.5070 269.3146 0007864 330.1180  29.9609 15.27183061169971
VIZARD-METEO (RS38S)    
1 57189U 23091Z   26205.26671099  .00021348  00000+0  58889-3 0  9998
2 57189  97.5073 275.5202 0005171 299.3621  60.7106 15.37109271170387
POLYTECH-UNIVERSE 3 (R*)
1 57191U 23091AB  26205.28869805  .00005590  00000+0  26633-3 0  9990
2 57191  97.5029 262.8384 0015176   7.0126 353.1318 15.19433772169581
UTMN 2 (RS27S)          
1 57203U 23091AP  26205.27928862  .00016080  00000+0  50813-3 0  9995
2 57203  97.5069 273.0320 0006061 312.5534  47.5196 15.32878239170220
